[{"OBJECT_NAME":"LEMUR-2-ANDIS","OBJECT_ID":"2017-042P","EPOCH":"2026-03-09T13:25:33.116448","MEAN_MOTION":15.30557934,"ECCENTRICITY":0.0009101,"INCLINATION":97.3659,"RA_OF_ASC_NODE":249.795,"ARG_OF_PERICENTER":4.3248,"MEAN_ANOMALY":355.807,"EPHEMERIS_TYPE":0,"CLASSIFICATION_TYPE":"U","NORAD_CAT_ID":42838,"ELEMENT_SET_NO":999,"REV_AT_EPOCH":47319,"BSTAR":0.00079875,"MEAN_MOTION_DOT":0.00023598,"MEAN_MOTION_DDOT":0},{"OBJECT_NAME":"STARLINK-31267","OBJECT_ID":"2024-068P","EPOCH":"2026-03-08T06:22:55.288416","MEAN_MOTION":15.27568172,"ECCENTRICITY":0.00011376,"INCLINATION":43.0021,"RA_OF_ASC_NODE":38.3404,"ARG_OF_PERICENTER":277.3139,"MEAN_ANOMALY":82.7584,"EPHEMERIS_TYPE":0,"CLASSIFICATION_TYPE":"U","NORAD_CAT_ID":59468,"ELEMENT_SET_NO":999,"REV_AT_EPOCH":10835,"BSTAR":-1.8480277e-5,"MEAN_MOTION_DOT":-7.7e-6,"MEAN_MOTION_DDOT":0}]
